{
"type": "FeatureCollection",
"name": "Community_Centers",
"crs": { "type": "name", "properties": { "name": "urn:ogc:def:crs:OGC:1.3:CRS84" } },
"features": [
{ "type": "Feature", "properties": { "FID": 1, "OBJECTID": 0, "SITE": "Pino", "PHONE": "635-5120", "FAX": "635-1874", "STREET": "86 Boardman St.", "NEIGH": "East Boston", "ZIP": 2128 }, "geometry": { "type": "Point", "coordinates": [ -71.010826983739506, 42.388881714061903 ] } },
{ "type": "Feature", "properties": { "FID": 2, "OBJECTID": 0, "SITE": "Paris Street Pool*", "PHONE": "635-1410", "FAX": "635-5079", "STREET": "113 Paris St.", "NEIGH": "East Boston", "ZIP": 2128 }, "geometry": { "type": "Point", "coordinates": [ -71.036891916341503, 42.372427151192198 ] } },
{ "type": "Feature", "properties": { "FID": 3, "OBJECTID": 0, "SITE": "Paris Street", "PHONE": "635-5125", "FAX": "635-5079", "STREET": "112 Paris St.", "NEIGH": "East Boston", "ZIP": 2128 }, "geometry": { "type": "Point", "coordinates": [ -71.0375220248402, 42.372881631282901 ] } },
{ "type": "Feature", "properties": { "FID": 4, "OBJECTID": 0, "SITE": "Golden Age Center", "PHONE": "635-5175", "FAX": "635-5647", "STREET": "382 Main St.", "NEIGH": "Charlestown", "ZIP": 2129 }, "geometry": { "type": "Point", "coordinates": [ -71.069916814210302, 42.379769016804602 ] } },
{ "type": "Feature", "properties": { "FID": 5, "OBJECTID": 0, "SITE": "Charlestown*", "PHONE": "635-5169", "FAX": "635-5084", "STREET": "255 Medford St.", "NEIGH": "Charlestown", "ZIP": 2129 }, "geometry": { "type": "Point", "coordinates": [ -71.060950719231101, 42.380995303203001 ] } },
{ "type": "Feature", "properties": { "FID": 6, "OBJECTID": 0, "SITE": "Nazzaro", "PHONE": "635-5166", "FAX": "635-5053", "STREET": "30 N. Bennet St.", "NEIGH": "Boston", "ZIP": 2113 }, "geometry": { "type": "Point", "coordinates": [ -71.054496881016505, 42.365299679664197 ] } },
{ "type": "Feature", "properties": { "FID": 7, "OBJECTID": 0, "SITE": "Quincy*", "PHONE": "635-5129", "FAX": "635-5132", "STREET": "885 Washington St", "NEIGH": "Boston", "ZIP": 2111 }, "geometry": { "type": "Point", "coordinates": [ -71.064961769561407, 42.347949276305599 ] } },
{ "type": "Feature", "properties": { "FID": 8, "OBJECTID": 0, "SITE": "Condon*", "PHONE": "635-5100", "FAX": "635-5103", "STREET": "200 \"D\" St.", "NEIGH": "South Boston", "ZIP": 2127 }, "geometry": { "type": "Point", "coordinates": [ -71.052526640976694, 42.338151479745001 ] } },
{ "type": "Feature", "properties": { "FID": 9, "OBJECTID": 0, "SITE": "Tynan", "PHONE": "635-5110", "FAX": "635-5065", "STREET": "650 E. Fourth St.", "NEIGH": "South Boston", "ZIP": 2127 }, "geometry": { "type": "Point", "coordinates": [ -71.038913677534197, 42.334633438850702 ] } },
{ "type": "Feature", "properties": { "FID": 10, "OBJECTID": 0, "SITE": "Curley", "PHONE": "635-5104", "FAX": "635-1259", "STREET": "1663 Columbia Rd.", "NEIGH": "South Boston", "ZIP": 2127 }, "geometry": { "type": "Point", "coordinates": [ -71.035462946818399, 42.329207248541501 ] } },
{ "type": "Feature", "properties": { "FID": 11, "OBJECTID": 0, "SITE": "Vine Street", "PHONE": "635-1285", "FAX": "635-1291", "STREET": "339 Dudley Street", "NEIGH": "Roxbury", "ZIP": 2119 }, "geometry": { "type": "Point", "coordinates": [ -71.076714773593096, 42.326781808317399 ] } },
{ "type": "Feature", "properties": { "FID": 12, "OBJECTID": 0, "SITE": "Blackstone*", "PHONE": "635-5162", "FAX": "635-5057", "STREET": "50 W. Brookline S", "NEIGH": "Boston", "ZIP": 2118 }, "geometry": { "type": "Point", "coordinates": [ -71.073004136571697, 42.3403810738602 ] } },
{ "type": "Feature", "properties": { "FID": 13, "OBJECTID": 0, "SITE": "Rec. Division @ Madison Park*", "PHONE": "635-5206", "FAX": "635-5078", "STREET": "55 Malcom X Blvd", "NEIGH": "Roxbury", "ZIP": 2119 }, "geometry": { "type": "Point", "coordinates": [ -71.089227868605505, 42.331686026401499 ] } },
{ "type": "Feature", "properties": { "FID": 14, "OBJECTID": 0, "SITE": "Tobin", "PHONE": "635-5216", "FAX": "635-5288", "STREET": "1481 Tremont St.", "NEIGH": "Roxbury", "ZIP": 2119 }, "geometry": { "type": "Point", "coordinates": [ -71.098161689608901, 42.332401925596699 ] } },
{ "type": "Feature", "properties": { "FID": 15, "OBJECTID": 0, "SITE": "Hennigan*", "PHONE": "635-5198", "FAX": "635-5020", "STREET": "200 Heath St.", "NEIGH": "Jamaica Plai", "ZIP": 2130 }, "geometry": { "type": "Point", "coordinates": [ -71.106888620321399, 42.326082958998697 ] } },
{ "type": "Feature", "properties": { "FID": 16, "OBJECTID": 0, "SITE": "Shelburne", "PHONE": "635-5213", "FAX": "635-5224", "STREET": "2730 Washington S", "NEIGH": "Roxbury", "ZIP": 2119 }, "geometry": { "type": "Point", "coordinates": [ -71.090203292873198, 42.322410630471403 ] } },
{ "type": "Feature", "properties": { "FID": 17, "OBJECTID": 0, "SITE": "Holland*", "PHONE": "635-5144", "FAX": "635-5152", "STREET": "85 Olney St.", "NEIGH": "Dorchester", "ZIP": 2121 }, "geometry": { "type": "Point", "coordinates": [ -71.073619122679602, 42.306140246475699 ] } },
{ "type": "Feature", "properties": { "FID": 18, "OBJECTID": 0, "SITE": "Perkins*", "PHONE": "635-5146", "FAX": "635-5274", "STREET": "155 Talbot Ave.", "NEIGH": "Dorchester", "ZIP": 2124 }, "geometry": { "type": "Point", "coordinates": [ -71.080450551700295, 42.292451249708201 ] } },
{ "type": "Feature", "properties": { "FID": 19, "OBJECTID": 0, "SITE": "Cleveland", "PHONE": "635-5141", "FAX": "635-5028", "STREET": "11 Charles St.", "NEIGH": "Dorchester", "ZIP": 2122 }, "geometry": { "type": "Point", "coordinates": [ -71.061696155001499, 42.300880300825902 ] } },
{ "type": "Feature", "properties": { "FID": 20, "OBJECTID": 0, "SITE": "Leahy-Holloran*", "PHONE": "635-5150", "FAX": "635-5298", "STREET": "1 Worrell St.", "NEIGH": "Dorchester", "ZIP": 2122 }, "geometry": { "type": "Point", "coordinates": [ -71.049285508462006, 42.294350376668099 ] } },
{ "type": "Feature", "properties": { "FID": 21, "OBJECTID": 0, "SITE": "Gallivan", "PHONE": "635-5252", "FAX": "635-5042", "STREET": "61 Woodruff Way", "NEIGH": "Mattapan", "ZIP": 2126 }, "geometry": { "type": "Point", "coordinates": [ -71.082417536037198, 42.2752221764514 ] } },
{ "type": "Feature", "properties": { "FID": 22, "OBJECTID": 0, "SITE": "Mildred Avenue*", "PHONE": "635-1328", "FAX": "635-1332", "STREET": "5 Mildred Ave.", "NEIGH": "Mattapan", "ZIP": 2126 }, "geometry": { "type": "Point", "coordinates": [ -71.091203172642693, 42.275992724607697 ] } },
{ "type": "Feature", "properties": { "FID": 23, "OBJECTID": 0, "SITE": "Hyde Park", "PHONE": "635-5178", "FAX": "635-5290", "STREET": "1179 River St.", "NEIGH": "Hyde Park", "ZIP": 2136 }, "geometry": { "type": "Point", "coordinates": [ -71.1209922314941, 42.256425230679604 ] } },
{ "type": "Feature", "properties": { "FID": 24, "OBJECTID": 0, "SITE": "Curtis Hall*", "PHONE": "635-5193", "FAX": "635-5273", "STREET": "20 South St.", "NEIGH": "Jamaica Plai", "ZIP": 2130 }, "geometry": { "type": "Point", "coordinates": [ -71.114899935400103, 42.308851139897698 ] } },
{ "type": "Feature", "properties": { "FID": 25, "OBJECTID": 0, "SITE": "Roslindale", "PHONE": "635-5185", "FAX": "635-5271", "STREET": "6 Cummins Hwy.", "NEIGH": "Roslindale", "ZIP": 2131 }, "geometry": { "type": "Point", "coordinates": [ -71.127638424915105, 42.2865764735092 ] } },
{ "type": "Feature", "properties": { "FID": 26, "OBJECTID": 0, "SITE": "Flaherty Pool*", "PHONE": "635-5181", "FAX": "635-1225", "STREET": "160 Florence St.", "NEIGH": "Roslindale", "ZIP": 2131 }, "geometry": { "type": "Point", "coordinates": [ -71.122208770037702, 42.288320432289197 ] } },
{ "type": "Feature", "properties": { "FID": 27, "OBJECTID": 0, "SITE": "Menino", "PHONE": "635-5256", "FAX": "635-5258", "STREET": "125 Brookway Rd.", "NEIGH": "Roslindale", "ZIP": 2131 }, "geometry": { "type": "Point", "coordinates": [ -71.120149128998094, 42.292388246574902 ] } },
{ "type": "Feature", "properties": { "FID": 28, "OBJECTID": 0, "SITE": "Roche", "PHONE": "635-5066", "FAX": "635-5067", "STREET": "1716 Centre St.", "NEIGH": "West Roxbury", "ZIP": 2132 }, "geometry": { "type": "Point", "coordinates": [ -71.1493061558172, 42.286935990230702 ] } },
{ "type": "Feature", "properties": { "FID": 29, "OBJECTID": 0, "SITE": "Draper Pool*", "PHONE": "635-5021", "FAX": "635-5628", "STREET": "5279 Washington S", "NEIGH": "West Roxbury", "ZIP": 2132 }, "geometry": { "type": "Point", "coordinates": [ -71.159783227425606, 42.260165911625897 ] } },
{ "type": "Feature", "properties": { "FID": 30, "OBJECTID": 0, "SITE": "Ohrenberger", "PHONE": "635-5183", "FAX": "635-5283", "STREET": "175 W. Boundary R", "NEIGH": "West Roxbury", "ZIP": 2132 }, "geometry": { "type": "Point", "coordinates": [ -71.149466265765696, 42.2608343327245 ] } },
{ "type": "Feature", "properties": { "FID": 31, "OBJECTID": 0, "SITE": "Jackson/Mann", "PHONE": "635-5153", "FAX": "635-5275", "STREET": "500 Cambridge St.", "NEIGH": "Allston", "ZIP": 2134 }, "geometry": { "type": "Point", "coordinates": [ -71.137500770858793, 42.352909206197403 ] } },
{ "type": "Feature", "properties": { "FID": 32, "OBJECTID": 0, "SITE": "Mirabella Pool*", "PHONE": "635-1275", "FAX": "---", "STREET": "475 Commercial St", "NEIGH": "Boston", "ZIP": 2113 }, "geometry": { "type": "Point", "coordinates": [ -71.054309668246304, 42.368752820860003 ] } },
{ "type": "Feature", "properties": { "FID": 33, "OBJECTID": 0, "SITE": "Clougherty Pool*", "PHONE": "635-5174", "FAX": "---", "STREET": "Bunker Hill St.", "NEIGH": "Charlestown", "ZIP": 2129 }, "geometry": { "type": "Point", "coordinates": [ -71.067501164123897, 42.381877421663297 ] } },
{ "type": "Feature", "properties": { "FID": 34, "OBJECTID": 0, "SITE": "Grove Hall", "PHONE": "635-1484", "FAX": "635-1485", "STREET": "51 Geneva Ave.", "NEIGH": "Roxbury", "ZIP": 2121 }, "geometry": { "type": "Point", "coordinates": [ -71.0823239109573, 42.3088547158479 ] } },
{ "type": "Feature", "properties": { "FID": 35, "OBJECTID": 0, "SITE": "Mason Pool*", "PHONE": "635-5241", "FAX": "635-5627", "STREET": "159 Norfolk Ave.", "NEIGH": "Roxbury", "ZIP": 2118 }, "geometry": { "type": "Point", "coordinates": [ -71.0708185577016, 42.325806576469603 ] } },
{ "type": "Feature", "properties": { "FID": 36, "OBJECTID": null, "SITE": "Mattahunt", "PHONE": "635-5159", "FAX": null, "STREET": "100 Hebron St", "NEIGH": "Mattapan", "ZIP": 2126 }, "geometry": { "type": "Point", "coordinates": [ -71.103569936157399, 42.2758118486664 ] } },
{ "type": "Feature", "properties": { "FID": 38, "OBJECTID": null, "SITE": "New Chinatown Library", "PHONE": null, "FAX": null, "STREET": null, "NEIGH": null, "ZIP": null }, "geometry": { "type": "Point", "coordinates": [ -71.06086903856, 42.349655322646299 ] } }
]
}
